ONEWEB-0098             
1 45442U 20020U   25102.95652410 -.00019384  00000+0 -55159-1 0  9997
2 45442  87.8793 106.8227 0001856  84.2990 275.8350 13.11023431246259
ONEWEB-0093             
1 45444U 20020W   25102.76354824  .00000549  00000+0  15123-2 0  9995
2 45444  87.8793 106.8470 0002034  82.3791 277.7568 13.11418545246265
ONEWEB-0068             
1 45446U 20020Y   25102.76327670  .00000523  00000+0  14404-2 0  9999
2 45446  87.8793 106.8486 0002100  85.8803 274.2565 13.11417042246181
ONEWEB-0046             
1 45447U 20020Z   25102.75492780  .00000406  00000+0  11083-2 0  9994
2 45447  87.8795 106.8598 0002255  93.0167 267.1219 13.11418534246198
ONEWEB-0019             
1 45449U 20020AB  25102.75831091  .00000472  00000+0  12958-2 0  9993
2 45449  87.8797 106.8727 0001709  90.6318 269.5006 13.11416328246122
